NANOSATC-BR1            
1 40024U 14033Q   26068.98267556  .00020336  00000+0  74295-3 0  9994
2 40024  98.0845  92.7804 0004644 147.6715 212.4808 15.28136801638811
STARLINK-36076          
1 66588U 25270A   26067.99996192  .00026981  00000+0  98624-3 0  9991
2 66588  42.9986  59.7942 0000593 258.8349 101.2436 15.27585628 17605
